{"type":"FeatureCollection","features":[{"type":"Feature","properties":{"id":"1200013","name":"Acrelândia"},"geometry":{"type":"Polygon","coordinates":[[[-67.133,-9.676],[-66.619,-9.894],[-66.635,-9.913],[-66.626,-9.921],[-66.638,-9.952],[-66.657,-9.936],[-66.676,-9.968],[-66.717,-9.974],[-66.741,-9.996],[-66.764,-10],[-66.772,-10.021],[-66.79,-10.022],[-66.807,-10.048],[-66.836,-10.063],[-66.838,-10.083],[-66.873,-10.081],[-66.873,-10.101],[-66.883,-10.108],[-66.887,-10.099],[-66.889,-10.114],[-66.918,-10.131],[-66.911,-10.147],[-66.945,-10.157],[-66.954,-10.189],[-66.975,-10.186],[-66.975,-10.196],[-66.996,-10.199],[-66.999,-10.217],[-66.988,-10.221],[-66.998,-10.232],[-67.002,-10.217],[-67.076,-10.196],[-67.077,-10.091],[-67.099,-10.103],[-67.125,-9.971],[-67.091,-9.957],[-67.193,-9.704],[-67.133,-9.676]]]}},{"type":"Feature","properties":{"id":"1200054","name":"Assis Brasil"},"geometry":{"type":"Polygon","coordinates":[[[-69.588,-10.371],[-69.542,-10.418],[-69.534,-10.483],[-69.508,-10.505],[-69.511,-10.557],[-69.55,-10.614],[-69.652,-10.69],[-69.671,-10.731],[-69.757,-10.743],[-69.778,-10.782],[-69.728,-10.829],[-69.667,-10.837],[-69.657,-10.863],[-69.635,-10.845],[-69.592,-10.863],[-69.567,-10.857],[-69.552,-10.873],[-69.485,-10.794],[-69.498,-10.7],[-69.466,-10.71],[-69.422,-10.691],[-69.424,-10.713],[-69.393,-10.732],[-69.39,-10.826],[-69.428,-10.937],[-69.48,-10.955],[-69.5,-10.937],[-69.539,-10.936],[-69.546,-10.952],[-69.602,-10.942],[-69.612,-10.956],[-69.659,-10.952],[-69.698,-10.972],[-69.723,-10.965],[-69.737,-10.974],[-69.76,-10.94],[-69.773,-10.939],[-69.769,-10.93],[-69.852,-10.924],[-69.858,-10.934],[-69.9,-10.92],[-69.922,-10.932],[-69.934,-10.922],[-70.028,-10.977],[-70.036,-10.97],[-70.067,-10.993],[-70.08,-10.984],[-70.108,-10.995],[-70.107,-11.007],[-70.159,-11.041],[-70.2,-11.054],[-70.241,-11.046],[-70.307,-11.07],[-70.437,-11.039],[-70.45,-11.001],[-70.53,-10.935],[-70.621,-11],[-70.623,-10.711],[-70.602,-10.697],[-70.537,-10.692],[-70.524,-10.703],[-70.535,-10.713],[-70.51,-10.727],[-70.503,-10.714],[-70.466,-10.718],[-70.462,-10.701],[-70.444,-10.723],[-70.435,-10.715],[-70.423,-10.724],[-70.42,-10.708],[-70.396,-10.727],[-70.384,-10.719],[-70.381,-10.73],[-70.368,-10.73],[-70.364,-10.712],[-70.315,-10.714],[-70.312,-10.701],[-70.282,-10.691],[-70.28,-10.706],[-70.273,-10.695],[-70.255,-10.713],[-70.224,-10.676],[-70.207,-10.703],[-70.2,-10.69],[-70.176,-10.69],[-70.172,-10.667],[-70.162,-10.664],[-70.157,-10.676],[-70.123,-10.655],[-70.123,-10.638],[-70.09,-10.649],[-70.07,-10.633],[-70.07,-10.614],[-70.037,-10.611],[-70.031,-10.591],[-70.011,-10.591],[-69.992,-10.57],[-69.975,-10.583],[-69.929,-10.548],[-69.921,-10.559],[-69.906,-10.543],[-69.878,-10.558],[-69.862,-10.538],[-69.832,-10.538],[-69.831,-10.507],[-69.8,-10.509],[-69.805,-10.48],[-69.785,-10.461],[-69.687,-10.435],[-69.682,-10.41],[-69.677,-10.424],[-69.648,-10.428],[-69.637,-10.408],[-69.645,-10.403],[-69.629,-10.403],[-69.588,-10.371]]]}},{"type":"Feature","properties":{"id":"1200104","name":"Brasiléia"},"geometry":{"type":"Polygon","coordinates":[[[-69.129,-10.402],[-69.168,-10.477],[-69.165,-10.502],[-69.118,-10.525],[-69.081,-10.579],[-69.06,-10.59],[-68.979,-10.575],[-68.971,-10.584],[-68.904,-10.58],[-68.908,-10.603],[-68.926,-10.616],[-68.915,-10.636],[-68.932,-10.676],[-68.948,-10.677],[-68.948,-10.711],[-68.976,-10.741],[-68.975,-10.771],[-68.907,-10.777],[-68.835,-10.74],[-68.786,-10.833],[-68.784,-10.869],[-68.687,-10.937],[-68.687,-10.968],[-68.725,-10.972],[-68.717,-10.991],[-68.727,-11.002],[-68.741,-10.991],[-68.743,-11.016],[-68.762,-11.019],[-68.758,-11.001],[-68.781,-10.999],[-68.788,-11.015],[-68.792,-10.991],[-68.828,-11.008],[-68.827,-10.997],[-68.841,-11.003],[-68.848,-10.993],[-68.86,-11.018],[-68.882,-11.01],[-68.881,-11.022],[-68.895,-11.007],[-68.912,-11.022],[-68.934,-11.005],[-68.947,-11.013],[-68.953,-10.989],[-68.973,-10.989],[-68.988,-10.998],[-68.984,-11.009],[-69.013,-11.005],[-69.012,-10.992],[-69.05,-10.975],[-69.061,-10.984],[-69.072,-10.966],[-69.121,-10.98],[-69.122,-10.967],[-69.149,-10.971],[-69.152,-10.955],[-69.164,-10.965],[-69.186,-10.948],[-69.215,-10.957],[-69.232,-10.94],[-69.241,-10.951],[-69.271,-10.942],[-69.274,-10.954],[-69.324,-10.936],[-69.343,-10.952],[-69.356,-10.937],[-69.372,-10.939],[-69.374,-10.954],[-69.388,-10.934],[-69.395,-10.944],[-69.402,-10.93],[-69.413,-10.938],[-69.421,-10.927],[-69.39,-10.826],[-69.393,-10.732],[-69.424,-10.713],[-69.422,-10.691],[-69.466,-10.71],[-69.498,-10.7],[-69.485,-10.794],[-69.552,-10.873],[-69.567,-10.857],[-69.592,-10.863],[-69.635,-10.845],[-69.657,-10.863],[-69.667,-10.837],[-69.728,-10.829],[-69.778,-10.782],[-69.757,-10.743],[-69.671,-10.731],[-69.652,-10.69],[-69.55,-10.614],[-69.511,-10.557],[-69.508,-10.505],[-69.342,-10.485],[-69.249,-10.455],[-69.246,-10.436],[-69.221,-10.415],[-69.152,-10.399],[-69.149,-10.385],[-69.132,-10.385],[-69.129,-10.402]]]}},{"type":"Feature","properties":{"id":"1200138","name":"Bujari"},"geometry":{"type":"Polygon","coordinates":[[[-68.22,-9.242],[-67.974,-9.353],[-68.02,-9.357],[-68.032,-9.344],[-68.048,-9.352],[-68.059,-9.417],[-68.027,-9.444],[-68.019,-9.47],[-68.033,-9.495],[-68.075,-9.522],[-68.089,-9.554],[-68.013,-9.606],[-67.909,-9.709],[-67.834,-9.75],[-67.804,-9.747],[-67.796,-9.762],[-67.827,-9.782],[-67.83,-9.87],[-67.867,-9.841],[-67.926,-9.854],[-67.976,-9.847],[-68.069,-9.896],[-68.101,-9.93],[-68.135,-9.934],[-68.152,-9.96],[-68.3,-9.794],[-68.38,-9.782],[-68.396,-9.804],[-68.442,-9.827],[-68.427,-9.711],[-68.441,-9.639],[-68.455,-9.624],[-68.428,-9.599],[-68.411,-9.521],[-68.396,-9.5],[-68.354,-9.489],[-68.33,-9.44],[-68.401,-9.324],[-68.344,-9.29],[-68.288,-9.285],[-68.22,-9.242]]]}},{"type":"Feature","properties":{"id":"1200179","name":"Capixaba"},"geometry":{"type":"Polygon","coordinates":[[[-67.773,-10.242],[-67.756,-10.271],[-67.716,-10.292],[-67.689,-10.354],[-67.637,-10.363],[-67.658,-10.398],[-67.68,-10.391],[-67.706,-10.433],[-67.696,-10.453],[-67.659,-10.48],[-67.624,-10.48],[-67.587,-10.51],[-67.64,-10.598],[-67.66,-10.616],[-67.676,-10.605],[-67.707,-10.71],[-67.729,-10.713],[-67.762,-10.685],[-67.864,-10.641],[-67.908,-10.641],[-67.929,-10.656],[-67.961,-10.65],[-67.976,-10.663],[-68.002,-10.648],[-68.016,-10.602],[-67.983,-10.593],[-68.017,-10.565],[-68.064,-10.425],[-68.026,-10.379],[-68.038,-10.351],[-67.999,-10.316],[-67.96,-10.314],[-67.946,-10.288],[-67.847,-10.287],[-67.844,-10.28],[-67.856,-10.284],[-67.846,-10.27],[-67.818,-10.267],[-67.833,-10.248],[-67.812,-10.225],[-67.827,-10.21],[-67.804,-10.198],[-67.773,-10.242]]]}},{"type":"Feature","properties":{"id":"1200203","name":"Cruzeiro do Sul"},"geometry":{"type":"Polygon","coordinates":[[[-71.989,-7.673],[-71.978,-7.682],[-72.004,-7.714],[-71.993,-7.747],[-72.021,-7.783],[-72.017,-7.798],[-72.031,-7.8],[-72.059,-7.849],[-72.09,-7.862],[-72.133,-7.917],[-72.198,-7.949],[-72.219,-7.974],[-72.237,-8.068],[-72.258,-8.085],[-72.265,-8.222],[-72.302,-8.208],[-72.322,-8.23],[-72.408,-8.258],[-72.456,-8.23],[-72.503,-8.232],[-72.537,-8.214],[-72.556,-8.187],[-72.634,-8.185],[-72.68,-8.226],[-72.729,-8.201],[-72.749,-8.213],[-72.76,-8.196],[-72.794,-8.2],[-72.808,-8.122],[-72.925,-8.202],[-72.999,-8.223],[-73,-8.241],[-73.038,-8.283],[-73.086,-8.3],[-73.101,-8.341],[-73.2,-8.377],[-73.331,-8.474],[-73.39,-8.469],[-73.413,-8.411],[-73.482,-8.392],[-73.486,-8.378],[-73.517,-8.37],[-73.537,-8.346],[-73.537,-8.27],[-73.58,-8.209],[-73.594,-8.206],[-73.583,-8.128],[-73.63,-8.051],[-73.397,-8.029],[-73.374,-7.987],[-73.342,-7.982],[-73.321,-7.992],[-73.212,-7.909],[-73.169,-7.893],[-73.131,-7.899],[-73.092,-7.884],[-73.116,-7.923],[-73.097,-7.941],[-73.032,-7.931],[-72.948,-7.943],[-72.923,-7.923],[-72.894,-7.927],[-72.853,-7.908],[-72.797,-7.904],[-72.756,-7.871],[-72.743,-7.883],[-72.726,-7.851],[-72.71,-7.864],[-72.702,-7.855],[-72.717,-7.855],[-72.717,-7.844],[-72.693,-7.849],[-72.68,-7.825],[-72.661,-7.833],[-72.616,-7.813],[-72.625,-7.799],[-72.633,-7.811],[-72.646,-7.786],[-72.609,-7.78],[-72.642,-7.772],[-72.625,-7.756],[-72.645,-7.734],[-72.644,-7.676],[-72.653,-7.694],[-72.731,-7.724],[-72.78,-7.693],[-72.86,-7.675],[-72.847,-7.656],[-72.783,-7.661],[-72.862,-7.58],[-72.901,-7.437],[-72.584,-7.552],[-71.957,-7.625],[-71.989,-7.673]]]}},{"type":"Feature","properties":{"id":"1200252","name":"Epitaciolândia"},"geometry":{"type":"Polygon","coordinates":[[[-68.648,-10.614],[-68.637,-10.619],[-68.644,-10.654],[-68.607,-10.658],[-68.552,-10.717],[-68.532,-10.721],[-68.544,-10.73],[-68.533,-10.752],[-68.541,-10.767],[-68.553,-10.757],[-68.558,-10.778],[-68.477,-10.834],[-68.459,-10.815],[-68.427,-10.825],[-68.403,-10.857],[-68.402,-10.894],[-68.421,-10.91],[-68.413,-10.918],[-68.423,-10.934],[-68.405,-10.957],[-68.411,-10.989],[-68.389,-11.041],[-68.405,-11.053],[-68.432,-11.031],[-68.445,-11.046],[-68.487,-11.051],[-68.543,-11.11],[-68.716,-11.145],[-68.721,-11.104],[-68.757,-11.084],[-68.766,-11.049],[-68.737,-11.012],[-68.741,-10.991],[-68.727,-11.002],[-68.717,-10.991],[-68.725,-10.972],[-68.687,-10.968],[-68.687,-10.937],[-68.784,-10.869],[-68.786,-10.833],[-68.835,-10.74],[-68.806,-10.716],[-68.808,-10.671],[-68.784,-10.663],[-68.761,-10.674],[-68.732,-10.645],[-68.712,-10.646],[-68.71,-10.637],[-68.648,-10.614]]]}},{"type":"Feature","properties":{"id":"1200302","name":"Feijó"},"geometry":{"type":"Polygon","coordinates":[[[-69.989,-7.901],[-69.444,-8.366],[-69.449,-8.388],[-69.509,-8.458],[-69.575,-8.636],[-69.62,-8.65],[-69.661,-8.681],[-69.731,-8.767],[-69.758,-8.782],[-69.847,-8.948],[-70.09,-8.974],[-70.319,-8.964],[-70.365,-8.982],[-70.439,-9.088],[-70.54,-9.16],[-70.677,-9.373],[-70.791,-9.449],[-70.863,-9.457],[-70.951,-9.536],[-70.978,-9.598],[-71.045,-9.642],[-71.1,-9.749],[-71.077,-9.828],[-71.104,-9.852],[-71.163,-9.876],[-71.211,-9.967],[-71.254,-9.964],[-71.26,-9.978],[-71.308,-9.992],[-71.349,-9.974],[-71.376,-10.001],[-72.199,-10],[-72.17,-9.966],[-72.192,-9.929],[-72.154,-9.884],[-72.178,-9.822],[-72.111,-9.763],[-72.035,-9.743],[-72.039,-9.767],[-72.008,-9.754],[-71.992,-9.717],[-71.929,-9.722],[-71.92,-9.686],[-71.884,-9.667],[-71.87,-9.637],[-71.836,-9.622],[-71.839,-9.601],[-71.808,-9.566],[-71.809,-9.531],[-71.794,-9.522],[-71.802,-9.505],[-71.792,-9.486],[-71.759,-9.471],[-71.724,-9.426],[-71.733,-9.368],[-71.715,-9.313],[-71.699,-9.299],[-71.7,-9.267],[-71.649,-9.24],[-71.644,-9.206],[-71.615,-9.188],[-71.627,-9.144],[-71.605,-9.128],[-71.615,-9.118],[-71.603,-9.099],[-71.61,-9.08],[-71.591,-9.063],[-71.598,-9.024],[-71.585,-8.987],[-71.569,-8.98],[-71.574,-8.962],[-71.548,-8.934],[-71.538,-8.937],[-71.527,-8.909],[-71.501,-8.904],[-71.459,-8.867],[-71.421,-8.886],[-71.395,-8.877],[-71.373,-8.895],[-71.343,-8.867],[-71.329,-8.872],[-71.315,-8.854],[-71.31,-8.863],[-71.29,-8.84],[-71.275,-8.851],[-71.264,-8.838],[-71.27,-8.851],[-71.254,-8.845],[-71.242,-8.855],[-71.224,-8.821],[-71.196,-8.805],[-71.186,-8.814],[-71.176,-8.788],[-71.161,-8.797],[-71.138,-8.778],[-71.128,-8.783],[-71.122,-8.764],[-71.118,-8.772],[-71.104,-8.765],[-71.103,-8.775],[-71.09,-8.761],[-71.078,-8.778],[-71.081,-8.755],[-71.056,-8.756],[-71.058,-8.74],[-71.031,-8.732],[-71.026,-8.717],[-71.014,-8.726],[-71.015,-8.686],[-71.004,-8.691],[-70.979,-8.668],[-70.98,-8.653],[-70.968,-8.643],[-70.963,-8.652],[-70.962,-8.635],[-70.921,-8.6],[-70.892,-8.639],[-70.872,-8.641],[-70.858,-8.67],[-70.836,-8.646],[-70.784,-8.64],[-70.768,-8.611],[-70.742,-8.609],[-70.688,-8.523],[-70.702,-8.477],[-70.653,-8.466],[-70.676,-8.438],[-70.68,-8.383],[-70.625,-8.341],[-70.633,-8.311],[-70.564,-8.215],[-70.579,-8.197],[-70.555,-8.161],[-70.576,-8.116],[-70.567,-8.043],[-70.586,-7.997],[-70.618,-7.992],[-70.636,-7.976],[-70.646,-7.949],[-70.631,-7.927],[-70.645,-7.911],[-70.634,-7.919],[-70.62,-7.912],[-70.62,-7.893],[-70.6,-7.894],[-70.608,-7.875],[-70.583,-7.873],[-70.57,-7.853],[-70.578,-7.841],[-70.546,-7.821],[-70.547,-7.809],[-70.515,-7.792],[-70.052,-7.847],[-69.989,-7.901]]]}},{"type":"Feature","properties":{"id":"1200328","name":"Jordão"},"geometry":{"type":"Polygon","coordinates":[[[-71.559,-8.656],[-71.542,-8.738],[-71.574,-8.757],[-71.618,-8.825],[-71.616,-8.858],[-71.553,-8.851],[-71.526,-8.873],[-71.501,-8.87],[-71.482,-8.883],[-71.501,-8.904],[-71.527,-8.909],[-71.538,-8.937],[-71.548,-8.934],[-71.574,-8.962],[-71.569,-8.98],[-71.585,-8.987],[-71.602,-9.043],[-71.591,-9.063],[-71.612,-9.088],[-71.603,-9.099],[-71.615,-9.118],[-71.605,-9.128],[-71.627,-9.144],[-71.615,-9.188],[-71.644,-9.206],[-71.649,-9.24],[-71.7,-9.267],[-71.699,-9.299],[-71.715,-9.313],[-71.733,-9.368],[-71.724,-9.426],[-71.759,-9.471],[-71.792,-9.486],[-71.802,-9.505],[-71.794,-9.522],[-71.809,-9.531],[-71.808,-9.566],[-71.839,-9.601],[-71.836,-9.622],[-71.87,-9.637],[-71.884,-9.667],[-71.92,-9.686],[-71.929,-9.722],[-71.992,-9.717],[-72.008,-9.754],[-72.039,-9.767],[-72.035,-9.743],[-72.111,-9.763],[-72.153,-9.797],[-72.228,-9.762],[-72.244,-9.766],[-72.271,-9.743],[-72.246,-9.654],[-72.259,-9.641],[-72.254,-9.612],[-72.288,-9.601],[-72.283,-9.54],[-72.313,-9.544],[-72.33,-9.534],[-72.345,-9.545],[-72.373,-9.52],[-72.371,-9.509],[-72.299,-9.504],[-72.208,-9.406],[-72.156,-9.383],[-72.045,-9.203],[-72.063,-9.179],[-72.028,-8.973],[-72.036,-8.945],[-72.054,-8.934],[-72.044,-8.9],[-72.081,-8.854],[-71.968,-8.778],[-71.811,-8.83],[-71.796,-8.806],[-71.782,-8.814],[-71.765,-8.799],[-71.75,-8.764],[-71.712,-8.742],[-71.713,-8.722],[-71.693,-8.729],[-71.692,-8.719],[-71.674,-8.717],[-71.682,-8.701],[-71.659,-8.706],[-71.619,-8.69],[-71.626,-8.677],[-71.614,-8.665],[-71.607,-8.677],[-71.601,-8.66],[-71.555,-8.647],[-71.559,-8.656]]]}},{"type":"Feature","properties":{"id":"1200336","name":"Mâncio Lima"},"geometry":{"type":"Polygon","coordinates":[[[-73.12,-7.358],[-72.901,-7.437],[-72.862,-7.58],[-72.783,-7.661],[-72.847,-7.656],[-72.86,-7.675],[-72.915,-7.664],[-72.946,-7.689],[-73.039,-7.665],[-73.183,-7.725],[-73.256,-7.791],[-73.307,-7.778],[-73.303,-7.752],[-73.338,-7.731],[-73.331,-7.711],[-73.361,-7.723],[-73.374,-7.744],[-73.403,-7.744],[-73.443,-7.772],[-73.486,-7.759],[-73.503,-7.732],[-73.535,-7.728],[-73.544,-7.715],[-73.675,-7.74],[-73.692,-7.768],[-73.741,-7.734],[-73.822,-7.718],[-73.845,-7.676],[-73.886,-7.656],[-73.889,-7.632],[-73.984,-7.567],[-73.991,-7.536],[-73.948,-7.527],[-73.92,-7.466],[-73.968,-7.36],[-73.959,-7.346],[-73.944,-7.361],[-73.934,-7.352],[-73.91,-7.378],[-73.87,-7.379],[-73.853,-7.347],[-73.83,-7.337],[-73.793,-7.342],[-73.766,-7.332],[-73.756,-7.347],[-73.718,-7.328],[-73.7,-7.304],[-73.716,-7.268],[-73.714,-7.234],[-73.754,-7.201],[-73.759,-7.171],[-73.801,-7.111],[-73.12,-7.358]]]}},{"type":"Feature","properties":{"id":"1200344","name":"Manoel Urbano"},"geometry":{"type":"Polygon","coordinates":[[[-68.941,-8.836],[-68.972,-8.843],[-69.025,-8.887],[-69.082,-8.905],[-69.085,-8.931],[-69.111,-8.955],[-69.176,-8.942],[-69.201,-8.956],[-69.234,-9.04],[-69.256,-9.053],[-69.349,-9.046],[-69.387,-9.093],[-69.458,-9.145],[-69.588,-9.179],[-69.615,-9.191],[-69.612,-9.209],[-69.668,-9.236],[-69.691,-9.23],[-69.77,-9.339],[-69.797,-9.334],[-69.784,-9.38],[-69.818,-9.424],[-69.847,-9.424],[-69.861,-9.439],[-69.869,-9.521],[-69.931,-9.611],[-69.946,-9.675],[-69.972,-9.707],[-69.977,-9.782],[-70.039,-9.866],[-70.043,-9.99],[-70.136,-10.194],[-70.227,-10.292],[-70.219,-10.312],[-70.24,-10.342],[-70.256,-10.425],[-70.625,-10.425],[-70.624,-10.075],[-70.577,-10.022],[-70.535,-10.007],[-70.499,-9.962],[-70.445,-9.942],[-70.439,-9.911],[-70.325,-9.8],[-70.319,-9.754],[-70.296,-9.744],[-70.285,-9.716],[-70.271,-9.713],[-70.242,-9.665],[-70.221,-9.658],[-70.204,-9.624],[-70.189,-9.624],[-70.188,-9.6],[-70.153,-9.558],[-70.141,-9.559],[-70.123,-9.534],[-70.076,-9.538],[-70.062,-9.523],[-70.037,-9.531],[-70.028,-9.523],[-70.036,-9.505],[-70.155,-9.472],[-70.204,-9.438],[-70.331,-9.396],[-70.299,-9.338],[-70.27,-9.34],[-70.267,-9.309],[-70.247,-9.312],[-70.21,-9.276],[-70.153,-9.267],[-70.144,-9.283],[-70.087,-9.278],[-70.051,-9.289],[-70.027,-9.278],[-70.012,-9.252],[-69.985,-9.259],[-69.957,-9.23],[-69.91,-9.246],[-69.908,-9.228],[-69.892,-9.232],[-69.904,-9.213],[-69.88,-9.219],[-69.877,-9.203],[-69.85,-9.196],[-69.846,-9.161],[-69.829,-9.155],[-69.848,-9.14],[-69.82,-9.145],[-69.796,-9.112],[-69.826,-9.077],[-69.865,-8.957],[-69.834,-8.934],[-69.758,-8.782],[-69.731,-8.767],[-69.661,-8.681],[-69.62,-8.65],[-69.575,-8.636],[-69.509,-8.458],[-69.449,-8.388],[-69.444,-8.366],[-68.922,-8.813],[-68.941,-8.836]]]}},{"type":"Feature","properties":{"id":"1200351","name":"Marechal Thaumaturgo"},"geometry":{"type":"Polygon","coordinates":[[[-72.693,-8.696],[-72.683,-8.749],[-72.637,-8.773],[-72.561,-8.765],[-72.495,-8.778],[-72.466,-8.754],[-72.379,-8.767],[-72.36,-8.782],[-72.303,-8.762],[-72.214,-8.701],[-72.144,-8.712],[-72.125,-8.828],[-72.044,-8.9],[-72.054,-8.934],[-72.036,-8.945],[-72.028,-8.973],[-72.063,-9.179],[-72.045,-9.203],[-72.156,-9.383],[-72.208,-9.406],[-72.299,-9.504],[-72.371,-9.509],[-72.437,-9.476],[-72.546,-9.491],[-72.566,-9.47],[-72.588,-9.474],[-72.604,-9.457],[-72.657,-9.444],[-72.684,-9.452],[-72.711,-9.434],[-72.724,-9.44],[-72.75,-9.41],[-73.212,-9.411],[-73.195,-9.395],[-73.188,-9.361],[-73.159,-9.352],[-73.13,-9.314],[-73.102,-9.306],[-73.113,-9.28],[-73.078,-9.237],[-73.058,-9.226],[-73.042,-9.237],[-73.008,-9.215],[-72.995,-9.194],[-73.018,-9.177],[-72.974,-9.153],[-72.944,-9.097],[-72.957,-9.016],[-72.942,-8.987],[-72.967,-8.979],[-72.992,-8.919],[-73.022,-8.913],[-73.022,-8.893],[-73.034,-8.916],[-73.045,-8.903],[-73.064,-8.84],[-73.09,-8.818],[-73.111,-8.758],[-73.06,-8.765],[-72.964,-8.741],[-72.924,-8.762],[-72.865,-8.748],[-72.85,-8.728],[-72.75,-8.717],[-72.728,-8.672],[-72.693,-8.696]]]}},{"type":"Feature","properties":{"id":"1200385","name":"Plácido de Castro"},"geometry":{"type":"Polygon","coordinates":[[[-67.125,-9.971],[-67.099,-10.103],[-67.077,-10.091],[-67.076,-10.196],[-67.002,-10.217],[-67.011,-10.254],[-67.079,-10.289],[-67.098,-10.282],[-67.131,-10.293],[-67.139,-10.309],[-67.128,-10.316],[-67.169,-10.337],[-67.187,-10.34],[-67.195,-10.325],[-67.224,-10.316],[-67.266,-10.333],[-67.315,-10.319],[-67.327,-10.335],[-67.311,-10.376],[-67.343,-10.376],[-67.356,-10.393],[-67.367,-10.377],[-67.407,-10.374],[-67.423,-10.394],[-67.413,-10.427],[-67.43,-10.43],[-67.444,-10.455],[-67.502,-10.471],[-67.518,-10.491],[-67.597,-10.51],[-67.624,-10.48],[-67.659,-10.48],[-67.696,-10.453],[-67.706,-10.433],[-67.68,-10.391],[-67.646,-10.39],[-67.612,-10.298],[-67.598,-10.306],[-67.502,-10.26],[-67.498,-10.234],[-67.441,-10.159],[-67.425,-10.096],[-67.346,-10.062],[-67.296,-10.061],[-67.125,-9.971]]]}},{"type":"Feature","properties":{"id":"1200393","name":"Porto Walter"},"geometry":{"type":"Polygon","coordinates":[[[-72.808,-8.122],[-72.794,-8.2],[-72.76,-8.196],[-72.749,-8.213],[-72.729,-8.201],[-72.68,-8.226],[-72.634,-8.185],[-72.556,-8.187],[-72.537,-8.214],[-72.503,-8.232],[-72.456,-8.23],[-72.408,-8.258],[-72.322,-8.23],[-72.302,-8.208],[-72.265,-8.222],[-72.266,-8.261],[-72.226,-8.281],[-72.266,-8.391],[-72.232,-8.41],[-72.228,-8.517],[-72.201,-8.552],[-72.23,-8.599],[-72.214,-8.701],[-72.303,-8.762],[-72.36,-8.782],[-72.379,-8.767],[-72.466,-8.754],[-72.495,-8.778],[-72.561,-8.765],[-72.637,-8.773],[-72.683,-8.749],[-72.693,-8.696],[-72.728,-8.672],[-72.737,-8.702],[-72.773,-8.727],[-72.85,-8.728],[-72.865,-8.748],[-72.924,-8.762],[-72.964,-8.741],[-73.06,-8.765],[-73.111,-8.758],[-73.115,-8.729],[-73.15,-8.684],[-73.209,-8.686],[-73.24,-8.666],[-73.263,-8.62],[-73.287,-8.619],[-73.282,-8.561],[-73.306,-8.472],[-73.331,-8.474],[-73.2,-8.377],[-73.101,-8.341],[-73.086,-8.3],[-73.038,-8.283],[-73,-8.241],[-72.999,-8.223],[-72.925,-8.202],[-72.808,-8.122]]]}},{"type":"Feature","properties":{"id":"1200401","name":"Rio Branco"},"geometry":{"type":"Polygon","coordinates":[[[-68.584,-9.539],[-68.514,-9.589],[-68.472,-9.547],[-68.418,-9.545],[-68.428,-9.599],[-68.455,-9.624],[-68.441,-9.639],[-68.427,-9.711],[-68.442,-9.827],[-68.396,-9.804],[-68.38,-9.782],[-68.3,-9.794],[-68.152,-9.96],[-68.135,-9.934],[-68.101,-9.93],[-68.069,-9.896],[-67.976,-9.847],[-67.926,-9.854],[-67.867,-9.841],[-67.83,-9.87],[-67.827,-9.782],[-67.796,-9.762],[-67.796,-9.779],[-67.744,-9.74],[-67.703,-9.787],[-67.716,-9.804],[-67.71,-9.836],[-67.685,-9.834],[-67.653,-9.863],[-67.625,-9.856],[-67.601,-9.865],[-67.608,-9.851],[-67.581,-9.824],[-67.566,-9.852],[-67.53,-9.855],[-67.513,-9.885],[-67.517,-9.906],[-67.482,-9.927],[-67.497,-9.967],[-67.49,-9.997],[-67.501,-10.02],[-67.529,-10.022],[-67.581,-10.069],[-67.62,-10.048],[-67.671,-10.102],[-67.757,-10.11],[-67.82,-10.089],[-67.828,-10.123],[-67.813,-10.132],[-67.818,-10.158],[-67.802,-10.185],[-67.811,-10.195],[-67.804,-10.204],[-67.827,-10.21],[-67.812,-10.225],[-67.833,-10.248],[-67.818,-10.267],[-67.846,-10.27],[-67.856,-10.284],[-67.844,-10.28],[-67.847,-10.287],[-67.946,-10.288],[-67.96,-10.314],[-67.999,-10.316],[-68.038,-10.351],[-68.025,-10.372],[-68.041,-10.389],[-68.097,-10.364],[-68.186,-10.382],[-68.207,-10.375],[-68.229,-10.39],[-68.272,-10.388],[-68.314,-10.418],[-68.328,-10.409],[-68.325,-10.394],[-68.388,-10.38],[-68.354,-10.358],[-68.351,-10.332],[-68.375,-10.312],[-68.416,-10.307],[-68.412,-10.268],[-68.437,-10.267],[-68.452,-10.248],[-68.456,-10.211],[-68.444,-10.191],[-68.453,-10.183],[-68.472,-10.195],[-68.47,-10.216],[-68.489,-10.228],[-68.496,-10.254],[-68.527,-10.257],[-68.535,-10.276],[-68.566,-10.273],[-68.582,-10.295],[-68.642,-10.306],[-68.661,-10.328],[-68.681,-10.331],[-68.683,-10.354],[-68.707,-10.365],[-68.713,-10.384],[-69.149,-10.385],[-69.152,-10.399],[-69.221,-10.415],[-69.246,-10.436],[-69.249,-10.455],[-69.342,-10.485],[-69.364,-10.463],[-69.342,-10.403],[-69.311,-10.364],[-69.121,-10.269],[-69.037,-10.164],[-68.885,-10.063],[-68.801,-9.962],[-68.694,-9.887],[-68.667,-9.841],[-68.7,-9.679],[-68.673,-9.56],[-68.633,-9.516],[-68.608,-9.505],[-68.601,-9.538],[-68.584,-9.539]]]}},{"type":"Feature","properties":{"id":"1200427","name":"Rodrigues Alves"},"geometry":{"type":"Polygon","coordinates":[[[-72.78,-7.693],[-72.731,-7.724],[-72.653,-7.694],[-72.644,-7.676],[-72.645,-7.734],[-72.625,-7.756],[-72.642,-7.772],[-72.609,-7.78],[-72.646,-7.786],[-72.633,-7.811],[-72.625,-7.799],[-72.616,-7.813],[-72.661,-7.833],[-72.68,-7.825],[-72.693,-7.849],[-72.717,-7.844],[-72.717,-7.855],[-72.702,-7.855],[-72.71,-7.864],[-72.726,-7.851],[-72.743,-7.883],[-72.756,-7.871],[-72.797,-7.904],[-72.853,-7.908],[-72.894,-7.927],[-72.923,-7.923],[-72.948,-7.943],[-73.032,-7.931],[-73.097,-7.941],[-73.116,-7.923],[-73.092,-7.884],[-73.131,-7.899],[-73.169,-7.893],[-73.212,-7.909],[-73.321,-7.992],[-73.342,-7.982],[-73.374,-7.987],[-73.397,-8.029],[-73.63,-8.051],[-73.624,-8.029],[-73.64,-8.008],[-73.678,-8.005],[-73.698,-7.961],[-73.732,-7.968],[-73.772,-7.902],[-73.753,-7.892],[-73.762,-7.858],[-73.713,-7.876],[-73.69,-7.854],[-73.682,-7.79],[-73.692,-7.768],[-73.675,-7.74],[-73.544,-7.715],[-73.451,-7.773],[-73.422,-7.767],[-73.403,-7.744],[-73.374,-7.744],[-73.361,-7.723],[-73.331,-7.711],[-73.338,-7.731],[-73.303,-7.752],[-73.307,-7.778],[-73.256,-7.791],[-73.183,-7.725],[-73.039,-7.665],[-72.946,-7.689],[-72.915,-7.664],[-72.78,-7.693]]]}},{"type":"Feature","properties":{"id":"1200435","name":"Santa Rosa do Purus"},"geometry":{"type":"Polygon","coordinates":[[[-69.865,-8.957],[-69.826,-9.077],[-69.796,-9.112],[-69.82,-9.145],[-69.848,-9.14],[-69.829,-9.155],[-69.846,-9.161],[-69.85,-9.196],[-69.877,-9.203],[-69.88,-9.219],[-69.904,-9.213],[-69.892,-9.232],[-69.908,-9.228],[-69.91,-9.246],[-69.957,-9.23],[-69.985,-9.259],[-70.012,-9.252],[-70.027,-9.278],[-70.051,-9.289],[-70.087,-9.278],[-70.144,-9.283],[-70.153,-9.267],[-70.21,-9.276],[-70.247,-9.312],[-70.267,-9.309],[-70.27,-9.34],[-70.299,-9.338],[-70.331,-9.396],[-70.204,-9.438],[-70.155,-9.472],[-70.036,-9.505],[-70.028,-9.523],[-70.037,-9.531],[-70.062,-9.523],[-70.076,-9.538],[-70.123,-9.534],[-70.141,-9.559],[-70.153,-9.558],[-70.188,-9.6],[-70.189,-9.624],[-70.204,-9.624],[-70.221,-9.658],[-70.242,-9.665],[-70.271,-9.713],[-70.285,-9.716],[-70.296,-9.744],[-70.319,-9.754],[-70.325,-9.8],[-70.439,-9.911],[-70.445,-9.942],[-70.499,-9.962],[-70.535,-10.007],[-70.577,-10.022],[-70.624,-10.075],[-70.622,-9.822],[-70.609,-9.801],[-70.591,-9.803],[-70.579,-9.777],[-70.56,-9.788],[-70.546,-9.777],[-70.525,-9.714],[-70.584,-9.638],[-70.597,-9.604],[-70.585,-9.571],[-70.598,-9.552],[-70.588,-9.547],[-70.59,-9.565],[-70.556,-9.571],[-70.57,-9.53],[-70.542,-9.536],[-70.545,-9.511],[-70.531,-9.514],[-70.511,-9.49],[-70.505,-9.504],[-70.523,-9.46],[-70.503,-9.461],[-70.51,-9.446],[-70.493,-9.426],[-70.525,-9.436],[-70.524,-9.426],[-70.537,-9.436],[-70.56,-9.427],[-70.594,-9.441],[-70.595,-9.458],[-70.611,-9.456],[-70.663,-9.524],[-70.714,-9.545],[-70.729,-9.568],[-70.75,-9.559],[-70.757,-9.602],[-70.787,-9.613],[-70.799,-9.641],[-70.835,-9.641],[-70.839,-9.655],[-70.869,-9.664],[-70.925,-9.741],[-70.963,-9.748],[-70.991,-9.788],[-70.995,-9.817],[-71.077,-9.828],[-71.1,-9.749],[-71.045,-9.642],[-70.978,-9.598],[-70.951,-9.536],[-70.863,-9.457],[-70.791,-9.449],[-70.677,-9.373],[-70.54,-9.16],[-70.439,-9.088],[-70.365,-8.982],[-70.319,-8.964],[-70.09,-8.974],[-69.865,-8.957]]]}},{"type":"Feature","properties":{"id":"1200450","name":"Senador Guiomard"},"geometry":{"type":"Polygon","coordinates":[[[-67.139,-9.683],[-67.193,-9.704],[-67.091,-9.957],[-67.246,-10.026],[-67.296,-10.061],[-67.346,-10.062],[-67.425,-10.096],[-67.441,-10.159],[-67.498,-10.234],[-67.51,-10.268],[-67.598,-10.306],[-67.612,-10.298],[-67.637,-10.363],[-67.689,-10.354],[-67.716,-10.292],[-67.756,-10.271],[-67.784,-10.213],[-67.81,-10.199],[-67.802,-10.185],[-67.818,-10.158],[-67.813,-10.132],[-67.828,-10.123],[-67.82,-10.089],[-67.757,-10.11],[-67.671,-10.102],[-67.62,-10.048],[-67.581,-10.069],[-67.529,-10.022],[-67.501,-10.02],[-67.482,-9.927],[-67.447,-9.914],[-67.436,-9.837],[-67.368,-9.782],[-67.335,-9.724],[-67.327,-9.65],[-67.34,-9.623],[-67.324,-9.592],[-67.133,-9.676],[-67.139,-9.683]]]}},{"type":"Feature","properties":{"id":"1200500","name":"Sena Madureira"},"geometry":{"type":"Polygon","coordinates":[[[-68.922,-8.813],[-68.647,-9.049],[-68.22,-9.242],[-68.288,-9.285],[-68.344,-9.29],[-68.401,-9.324],[-68.33,-9.44],[-68.354,-9.489],[-68.396,-9.5],[-68.411,-9.541],[-68.472,-9.547],[-68.514,-9.589],[-68.601,-9.538],[-68.608,-9.505],[-68.633,-9.516],[-68.673,-9.56],[-68.7,-9.679],[-68.667,-9.841],[-68.694,-9.887],[-68.801,-9.962],[-68.885,-10.063],[-69.037,-10.164],[-69.121,-10.269],[-69.311,-10.364],[-69.342,-10.403],[-69.364,-10.463],[-69.342,-10.485],[-69.508,-10.505],[-69.534,-10.483],[-69.542,-10.418],[-69.592,-10.37],[-69.613,-10.394],[-69.645,-10.403],[-69.637,-10.408],[-69.648,-10.428],[-69.677,-10.424],[-69.682,-10.41],[-69.687,-10.435],[-69.785,-10.461],[-69.805,-10.48],[-69.8,-10.509],[-69.831,-10.507],[-69.832,-10.538],[-69.862,-10.538],[-69.878,-10.558],[-69.906,-10.543],[-69.921,-10.559],[-69.929,-10.548],[-69.975,-10.583],[-69.992,-10.57],[-70.011,-10.591],[-70.031,-10.591],[-70.037,-10.611],[-70.07,-10.614],[-70.07,-10.633],[-70.09,-10.649],[-70.123,-10.638],[-70.123,-10.655],[-70.157,-10.676],[-70.162,-10.664],[-70.172,-10.667],[-70.176,-10.69],[-70.2,-10.69],[-70.207,-10.703],[-70.224,-10.676],[-70.255,-10.713],[-70.273,-10.695],[-70.28,-10.706],[-70.282,-10.691],[-70.312,-10.701],[-70.315,-10.714],[-70.364,-10.712],[-70.368,-10.73],[-70.42,-10.708],[-70.423,-10.724],[-70.435,-10.715],[-70.444,-10.723],[-70.462,-10.701],[-70.466,-10.718],[-70.503,-10.714],[-70.51,-10.727],[-70.535,-10.713],[-70.524,-10.703],[-70.555,-10.688],[-70.623,-10.711],[-70.625,-10.425],[-70.256,-10.425],[-70.24,-10.342],[-70.219,-10.312],[-70.227,-10.292],[-70.136,-10.194],[-70.043,-9.99],[-70.039,-9.866],[-69.977,-9.782],[-69.972,-9.707],[-69.946,-9.675],[-69.931,-9.611],[-69.869,-9.521],[-69.861,-9.439],[-69.847,-9.424],[-69.818,-9.424],[-69.784,-9.38],[-69.797,-9.334],[-69.77,-9.339],[-69.691,-9.23],[-69.668,-9.236],[-69.612,-9.209],[-69.615,-9.191],[-69.588,-9.179],[-69.458,-9.145],[-69.387,-9.093],[-69.349,-9.046],[-69.256,-9.053],[-69.234,-9.04],[-69.201,-8.956],[-69.176,-8.942],[-69.111,-8.955],[-69.085,-8.931],[-69.082,-8.905],[-68.994,-8.87],[-68.922,-8.813]]]}},{"type":"Feature","properties":{"id":"1200609","name":"Tarauacá"},"geometry":{"type":"Polygon","coordinates":[[[-71.381,-7.692],[-70.515,-7.792],[-70.578,-7.841],[-70.57,-7.853],[-70.583,-7.873],[-70.608,-7.875],[-70.6,-7.894],[-70.62,-7.893],[-70.62,-7.912],[-70.645,-7.911],[-70.631,-7.927],[-70.646,-7.949],[-70.636,-7.976],[-70.618,-7.992],[-70.592,-7.992],[-70.573,-8.022],[-70.576,-8.116],[-70.555,-8.161],[-70.579,-8.197],[-70.564,-8.215],[-70.633,-8.311],[-70.625,-8.341],[-70.68,-8.383],[-70.676,-8.438],[-70.653,-8.466],[-70.702,-8.477],[-70.688,-8.523],[-70.742,-8.609],[-70.768,-8.611],[-70.784,-8.64],[-70.836,-8.646],[-70.858,-8.67],[-70.872,-8.641],[-70.892,-8.639],[-70.921,-8.6],[-70.962,-8.635],[-70.963,-8.652],[-70.968,-8.643],[-70.98,-8.653],[-70.979,-8.668],[-71.004,-8.691],[-71.015,-8.686],[-71.014,-8.726],[-71.026,-8.717],[-71.031,-8.732],[-71.058,-8.74],[-71.056,-8.756],[-71.081,-8.755],[-71.078,-8.778],[-71.09,-8.761],[-71.103,-8.775],[-71.104,-8.765],[-71.118,-8.772],[-71.122,-8.764],[-71.128,-8.783],[-71.138,-8.778],[-71.161,-8.797],[-71.176,-8.788],[-71.186,-8.814],[-71.196,-8.805],[-71.224,-8.821],[-71.242,-8.855],[-71.254,-8.845],[-71.27,-8.851],[-71.264,-8.838],[-71.275,-8.851],[-71.29,-8.84],[-71.31,-8.863],[-71.315,-8.854],[-71.329,-8.872],[-71.343,-8.867],[-71.373,-8.895],[-71.395,-8.877],[-71.421,-8.886],[-71.44,-8.869],[-71.468,-8.869],[-71.482,-8.883],[-71.501,-8.87],[-71.526,-8.873],[-71.553,-8.851],[-71.616,-8.858],[-71.618,-8.825],[-71.574,-8.757],[-71.542,-8.738],[-71.559,-8.68],[-71.555,-8.647],[-71.601,-8.66],[-71.607,-8.677],[-71.614,-8.665],[-71.626,-8.677],[-71.619,-8.69],[-71.659,-8.706],[-71.682,-8.701],[-71.674,-8.717],[-71.692,-8.719],[-71.693,-8.729],[-71.713,-8.722],[-71.712,-8.742],[-71.75,-8.764],[-71.765,-8.799],[-71.782,-8.814],[-71.796,-8.806],[-71.811,-8.83],[-71.968,-8.778],[-72.053,-8.839],[-72.073,-8.841],[-72.079,-8.867],[-72.125,-8.828],[-72.144,-8.712],[-72.214,-8.701],[-72.23,-8.599],[-72.201,-8.552],[-72.228,-8.517],[-72.232,-8.41],[-72.266,-8.391],[-72.226,-8.281],[-72.266,-8.261],[-72.258,-8.085],[-72.237,-8.068],[-72.214,-7.965],[-72.133,-7.917],[-72.09,-7.862],[-72.059,-7.849],[-72.031,-7.8],[-72.017,-7.798],[-72.021,-7.783],[-71.993,-7.747],[-72.004,-7.714],[-71.985,-7.698],[-71.978,-7.682],[-71.989,-7.673],[-71.957,-7.625],[-71.381,-7.692]]]}},{"type":"Feature","properties":{"id":"1200708","name":"Xapuri"},"geometry":{"type":"Polygon","coordinates":[[[-68.452,-10.248],[-68.437,-10.267],[-68.412,-10.268],[-68.416,-10.307],[-68.375,-10.312],[-68.351,-10.332],[-68.354,-10.358],[-68.388,-10.38],[-68.325,-10.394],[-68.328,-10.409],[-68.314,-10.418],[-68.272,-10.388],[-68.229,-10.39],[-68.207,-10.375],[-68.186,-10.382],[-68.097,-10.364],[-68.07,-10.383],[-68.048,-10.383],[-68.041,-10.389],[-68.064,-10.425],[-68.031,-10.536],[-68.017,-10.565],[-67.983,-10.593],[-68.016,-10.602],[-68.002,-10.648],[-68.033,-10.655],[-68.031,-10.665],[-68.055,-10.67],[-68.1,-10.709],[-68.103,-10.775],[-68.196,-10.859],[-68.237,-10.956],[-68.332,-11.013],[-68.354,-11.004],[-68.385,-11.018],[-68.389,-11.041],[-68.411,-10.989],[-68.405,-10.957],[-68.423,-10.934],[-68.413,-10.918],[-68.421,-10.91],[-68.402,-10.894],[-68.403,-10.857],[-68.427,-10.825],[-68.459,-10.815],[-68.477,-10.834],[-68.558,-10.778],[-68.553,-10.757],[-68.541,-10.767],[-68.533,-10.752],[-68.544,-10.73],[-68.532,-10.721],[-68.552,-10.717],[-68.607,-10.658],[-68.644,-10.654],[-68.637,-10.619],[-68.672,-10.619],[-68.712,-10.646],[-68.732,-10.645],[-68.761,-10.674],[-68.784,-10.663],[-68.808,-10.671],[-68.806,-10.716],[-68.854,-10.758],[-68.922,-10.78],[-68.975,-10.771],[-68.976,-10.741],[-68.948,-10.711],[-68.948,-10.677],[-68.932,-10.676],[-68.915,-10.636],[-68.926,-10.616],[-68.908,-10.603],[-68.904,-10.58],[-68.971,-10.584],[-68.979,-10.575],[-69.06,-10.59],[-69.118,-10.525],[-69.162,-10.51],[-69.169,-10.481],[-69.14,-10.435],[-69.132,-10.385],[-68.713,-10.384],[-68.707,-10.365],[-68.683,-10.354],[-68.681,-10.331],[-68.661,-10.328],[-68.642,-10.306],[-68.582,-10.295],[-68.566,-10.273],[-68.535,-10.276],[-68.527,-10.257],[-68.496,-10.254],[-68.489,-10.228],[-68.47,-10.216],[-68.472,-10.195],[-68.453,-10.183],[-68.444,-10.191],[-68.456,-10.211],[-68.452,-10.248]]]}},{"type":"Feature","properties":{"id":"1200807","name":"Porto Acre"},"geometry":{"type":"Polygon","coordinates":[[[-68.021,-9.349],[-67.974,-9.353],[-67.517,-9.56],[-67.324,-9.592],[-67.34,-9.623],[-67.327,-9.65],[-67.335,-9.724],[-67.368,-9.782],[-67.436,-9.837],[-67.447,-9.914],[-67.482,-9.927],[-67.517,-9.906],[-67.513,-9.885],[-67.53,-9.855],[-67.566,-9.852],[-67.581,-9.824],[-67.608,-9.851],[-67.601,-9.865],[-67.625,-9.856],[-67.653,-9.863],[-67.685,-9.834],[-67.71,-9.836],[-67.716,-9.804],[-67.703,-9.787],[-67.744,-9.74],[-67.796,-9.779],[-67.804,-9.747],[-67.834,-9.75],[-67.909,-9.709],[-68.013,-9.606],[-68.089,-9.554],[-68.075,-9.522],[-68.022,-9.481],[-68.027,-9.444],[-68.059,-9.417],[-68.062,-9.39],[-68.048,-9.352],[-68.021,-9.349]]]}}]}